OBJECT_NAME,OBJECT_ID,EPOCH,MEAN_MOTION,ECCENTRICITY,INCLINATION,RA_OF_ASC_NODE,ARG_OF_PERICENTER,MEAN_ANOMALY,EPHEMERIS_TYPE,CLASSIFICATION_TYPE,NORAD_CAT_ID,ELEMENT_SET_NO,REV_AT_EPOCH,BSTAR,MEAN_MOTION_DOT,MEAN_MOTION_DDOT
KUIPER-00595,2026-118P,2026-06-14T04:39:50.170752,15.38491917,.00018725,51.8719,67.6243,129.7659,230.3493,0,U,69280,999,355,.60081268E-3,.22857E-3,0
KUIPER-00596,2026-118Q,2026-06-14T05:19:49.314720,15.34892751,.00120401,51.8551,67.7971,174.2302,185.8824,0,U,69281,999,352,-.25371474E-2,-.86781E-3,0
KUIPER-00597,2026-118R,2026-06-14T04:59:25.569312,15.36964160,.00071472,51.8653,67.7153,160.3989,199.7273,0,U,69282,999,352,.70099788E-3,.25452E-3,0
KUIPER-00599,2026-118S,2026-06-14T04:56:14.301312,15.37324569,.00064292,51.8697,67.7014,153.8044,206.3269,0,U,69283,999,352,.65261902E-3,.23941E-3,0
KUIPER-00600,2026-118T,2026-06-14T05:04:40.651968,15.36668142,.00091218,51.8643,67.7366,162.7243,197.4056,0,U,69284,999,352,.61621491E-3,.22112E-3,0
KUIPER-00601,2026-118U,2026-06-14T04:52:01.535520,15.37599881,.00049365,51.8704,67.6804,145.9719,214.1586,0,U,69285,999,352,.73637631E-3,.27315E-3,0
KUIPER-00602,2026-118V,2026-06-14T04:45:01.304064,15.38111107,.00030154,51.8710,67.6491,135.6653,224.4576,0,U,69286,999,352,.45638087E-3,.17038E-3,0
KUIPER-00603,2026-118W,2026-06-14T04:53:39.333408,15.37507234,.00055568,51.8680,67.6902,149.7196,210.4113,0,U,69287,999,352,.65393391E-3,.24131E-3,0
KUIPER-00605,2026-118X,2026-06-14T05:00:24.887232,15.36989262,.0007755,51.8666,67.7186,155.7667,204.3685,0,U,69288,999,352,.2971476E-5,-.285E-5,0
KUIPER-00606,2026-118Y,2026-06-14T04:50:22.716384,15.37691677,.00047153,51.8703,67.6741,140.4669,219.6663,0,U,69289,999,352,.65045234E-3,.24143E-3,0
KUIPER-00607,2026-118Z,2026-06-14T04:54:58.633920,15.37378330,.00064242,51.8687,67.6959,152.0192,208.1141,0,U,69290,999,352,.67232592E-3,.24722E-3,0
KUIPER-00608,2026-118AA,2026-06-14T05:12:37.309536,15.35338171,.00091014,51.8604,67.7705,166.0382,194.0857,0,U,69291,999,352,.19723811E-3,.6501E-4,0
KUIPER-00610,2026-118AB,2026-06-14T04:42:31.660128,15.38321232,.00028215,51.8732,67.6339,127.7684,232.3559,0,U,69292,999,352,.64661423E-3,.24497E-3,0
KUIPER-00613,2026-118AC,2026-06-14T05:18:42.216480,15.35129568,.00102318,51.8628,67.7995,174.1076,186.0032,0,U,69293,999,352,.53243386E-3,.18118E-3,0
KUIPER-00618,2026-118AD,2026-06-14T04:37:38.313120,15.38578231,.00017956,51.8726,67.6104,88.3902,271.7291,0,U,69294,999,352,.78107511E-3,.29946E-3,0
KUIPER-00620,2026-118AE,2026-06-14T04:41:32.636832,15.38253726,.00028919,51.8726,67.6317,111.6315,248.4981,0,U,69295,999,352,.37158174E-3,.13858E-3,0
STARLINK-37501,2026-119A,2026-06-14T05:40:19.174656,15.79142289,.00022291,97.2824,190.9014,359.4746,0.6519,0,U,69296,999,357,-.26579224E-2,-.44861E-2,0
STARLINK-37496,2026-119B,2026-06-14T05:40:50.437632,15.79789532,.00008977,97.2827,190.9008,75.1195,285.0172,0,U,69297,999,357,-.71873423E-3,-.12959E-2,0
STARLINK-37519,2026-119C,2026-06-14T06:00:02.000160,15.76675998,.0001494,97.2839,190.9274,67.6320,37.1647,0,U,69298,999,341,-.18264858E-1,-.2489871E-1,0
STARLINK-37455,2026-119D,2026-06-12T14:07:06.079584,15.79682093,.00040545,97.2829,189.1634,36.6104,323.5440,0,U,69299,999,331,-.14431533E-2,-.255334E-2,0
STARLINK-37456,2026-119E,2026-06-14T06:00:02.000160,15.76383302,.00017863,97.2834,190.9278,88.7561,20.1377,0,U,69300,999,341,-.57782353E-2,-.825453E-2,0
STARLINK-37630,2026-119F,2026-06-14T06:00:02.000160,15.60040268,.00013937,97.2843,190.8672,99.1505,224.9361,0,U,69301,999,357,-.35135425E-1,-.2475522E-1,0
STARLINK-37804,2026-119G,2026-06-14T06:00:02.000160,15.60273568,.00013641,97.2841,190.8710,108.8607,221.2397,0,U,69302,999,357,-.35442137E-1,-.2513757E-1,0
STARLINK-37730,2026-119H,2026-06-14T03:56:35.918304,15.80876449,.00009719,97.2821,190.8462,87.0085,273.1295,0,U,69303,999,356,.69566472E-3,.135573E-2,0
STARLINK-37731,2026-119J,2026-06-14T06:00:02.000160,15.59153364,.00013962,97.2846,190.8722,98.1339,233.4259,0,U,69304,999,357,-.37046361E-1,-.2516659E-1,0
STARLINK-37734,2026-119K,2026-06-14T06:00:02.000160,15.76101442,.00029347,97.2833,190.9349,96.7230,27.3380,0,U,69305,999,357,-.16207146E-1,-.2199596E-1,0
STARLINK-37701,2026-119L,2026-06-14T03:54:41.927328,15.80891474,.00010067,97.2821,190.8473,82.8802,277.2581,0,U,69306,999,356,.89238686E-3,.174862E-2,0
STARLINK-37732,2026-119M,2026-06-14T03:54:05.800032,15.80891264,.00008339,97.2819,190.8490,50.3775,309.7567,0,U,69307,999,356,.91154739E-3,.178697E-2,0
STARLINK-37689,2026-119N,2026-06-14T06:00:02.000160,15.59502296,.00012746,97.2844,190.8786,88.3291,259.1715,0,U,69308,999,357,-.35795834E-1,-.2471089E-1,0
STARLINK-37619,2026-119P,2026-06-14T03:51:37.978272,15.80910536,.00005555,97.2821,190.8511,75.3116,284.8214,0,U,69309,999,356,.10619742E-2,.209129E-2,0
