KUIPER-00595            
1 69280U 26118P   26165.19433068  .00022857  00000+0  60081-3 0  9998
2 69280  51.8719  67.6243 0001872 129.7659 230.3493 15.38491917  3558
KUIPER-00596            
1 69281U 26118Q   26165.22209855 -.00086781  00000+0 -25371-2 0  9998
2 69281  51.8551  67.7971 0012040 174.2302 185.8824 15.34892751  3527
KUIPER-00597            
1 69282U 26118R   26165.20793483  .00025452  00000+0  70100-3 0  9999
2 69282  51.8653  67.7153 0007147 160.3989 199.7273 15.36964160  3520
KUIPER-00599            
1 69283U 26118S   26165.20572108  .00023941  00000+0  65262-3 0  9993
2 69283  51.8697  67.7014 0006429 153.8044 206.3269 15.37324569  3520
KUIPER-00600            
1 69284U 26118T   26165.21158162  .00022112  00000+0  61621-3 0  9999
2 69284  51.8643  67.7366 0009121 162.7243 197.4056 15.36668142  3525
KUIPER-00601            
1 69285U 26118U   26165.20279555  .00027315  00000+0  73638-3 0  9990
2 69285  51.8704  67.6804 0004936 145.9719 214.1586 15.37599881  3529
KUIPER-00602            
1 69286U 26118V   26165.19793176  .00017038  00000+0  45638-3 0  9999
2 69286  51.8710  67.6491 0003015 135.6653 224.4576 15.38111107  3524
KUIPER-00603            
1 69287U 26118W   26165.20392747  .00024131  00000+0  65393-3 0  9993
2 69287  51.8680  67.6902 0005556 149.7196 210.4113 15.37507234  3529
KUIPER-00605            
1 69288U 26118X   26165.20862138 -.00000285  00000+0  29715-5 0  9995
2 69288  51.8666  67.7186 0007755 155.7667 204.3685 15.36989262  3522
KUIPER-00606            
1 69289U 26118Y   26165.20165181  .00024143  00000+0  65045-3 0  9992
2 69289  51.8703  67.6741 0004715 140.4669 219.6663 15.37691677  3523
KUIPER-00607            
1 69290U 26118Z   26165.20484530  .00024722  00000+0  67233-3 0  9990
2 69290  51.8687  67.6959 0006424 152.0192 208.1141 15.37378330  3528
KUIPER-00608            
1 69291U 26118AA  26165.21709849  .00006501  00000+0  19724-3 0  9992
2 69291  51.8604  67.7705 0009101 166.0382 194.0857 15.35338171  3523
KUIPER-00610            
1 69292U 26118AB  26165.19619977  .00024497  00000+0  64661-3 0  9996
2 69292  51.8732  67.6339 0002821 127.7684 232.3559 15.38321232  3527
KUIPER-00613            
1 69293U 26118AC  26165.22132195  .00018118  00000+0  53243-3 0  9990
2 69293  51.8628  67.7995 0010231 174.1076 186.0032 15.35129568  3522
KUIPER-00618            
1 69294U 26118AD  26165.19280455  .00029946  00000+0  78108-3 0  9998
2 69294  51.8726  67.6104 0001795  88.3902 271.7291 15.38578231  3529
KUIPER-00620            
1 69295U 26118AE  26165.19551663  .00013858  00000+0  37158-3 0  9996
2 69295  51.8726  67.6317 0002891 111.6315 248.4981 15.38253726  3528
STARLINK-37501          
1 69296U 26119A   26165.23633304 -.00448610  00000+0 -26579-2 0  9990
2 69296  97.2824 190.9014 0002229 359.4746   0.6519 15.79142289  3577
STARLINK-37496          
1 69297U 26119B   26165.23669488 -.00129590  00000+0 -71873-3 0  9994
2 69297  97.2827 190.9008 0000897  75.1195 285.0172 15.79789532  3575
STARLINK-37519          
1 69298U 26119C   26165.25002315 -.02489871  00000+0 -18265-1 0  9994
2 69298  97.2839 190.9274 0001494  67.6320  37.1647 15.76675998  3417
STARLINK-37455          
1 69299U 26119D   26163.58826481 -.00255334  00000+0 -14432-2 0  9993
2 69299  97.2829 189.1634 0004054  36.6104 323.5440 15.79682093  3317
STARLINK-37456          
1 69300U 26119E   26165.25002315 -.00825453  00000+0 -57782-2 0  9994
2 69300  97.2834 190.9278 0001786  88.7561  20.1377 15.76383302  3412
STARLINK-37630          
1 69301U 26119F   26165.25002315 -.02475522  00000+0 -35135-1 0  9992
2 69301  97.2843 190.8672 0001393  99.1505 224.9361 15.60040268  3576
STARLINK-37804          
1 69302U 26119G   26165.25002315 -.02513757  00000+0 -35442-1 0  9997
2 69302  97.2841 190.8710 0001364 108.8607 221.2397 15.60273568  3577
STARLINK-37730          
1 69303U 26119H   26165.16430461  .00135573  00000+0  69566-3 0  9993
2 69303  97.2821 190.8462 0000971  87.0085 273.1295 15.80876449  3562
STARLINK-37731          
1 69304U 26119J   26165.25002315 -.02516659  00000+0 -37046-1 0  9995
2 69304  97.2846 190.8722 0001396  98.1339 233.4259 15.59153364  3576
STARLINK-37734          
1 69305U 26119K   26165.25002315 -.02199596  00000+0 -16207-1 0  9999
2 69305  97.2833 190.9349 0002934  96.7230  27.3380 15.76101442  3576
STARLINK-37701          
1 69306U 26119L   26165.16298527  .00174862  00000+0  89239-3 0  9994
2 69306  97.2821 190.8473 0001006  82.8802 277.2581 15.80891474  3565
STARLINK-37732          
1 69307U 26119M   26165.16256713  .00178697  00000+0  91155-3 0  9996
2 69307  97.2819 190.8490 0000833  50.3775 309.7567 15.80891264  3560
STARLINK-37689          
1 69308U 26119N   26165.25002315 -.02471089  00000+0 -35796-1 0  9996
2 69308  97.2844 190.8786 0001274  88.3291 259.1715 15.59502296  3575
STARLINK-37619          
1 69309U 26119P   26165.16085623  .00209129  00000+0  10620-2 0  9990
2 69309  97.2821 190.8511 0000555  75.3116 284.8214 15.80910536  3562
